[
    {
        "Altitude(m)": 705703.3147645674,
        "Argument of Periapsis(deg)": 0.005695060593313534,
        "Eccentricity": 0.0,
        "Inclination(deg)": 45.0,
        "Latitude(deg)": 37.75340257435419,
        "Longitude(deg)": 144.2553275325062,
        "Mean Anomaly(deg)": 120.31210832374038,
        "RAAN(deg)": 114.9946240292709,
        "Satellite Name": "Constellation 1 513",
        "Satellite Number": 513,
        "Semi-Major Axis(m)": 7083131.272910544,
        "Time(s)": 95
    },
    {
        "Altitude(m)": 705697.6854365686,
        "Argument of Periapsis(deg)": 0.00575500859955894,
        "Eccentricity": 0.0,
        "Inclination(deg)": 45.0,
        "Latitude(deg)": 37.725913730970326,
        "Longitude(deg)": 144.3195934312334,
        "Mean Anomaly(deg)": 120.37280946399031,
        "RAAN(deg)": 114.99456744010533,
        "Satellite Name": "Constellation 1 513",
        "Satellite Number": 513,
        "Semi-Major Axis(m)": 7083131.272910544,
        "Time(s)": 96
    },
    {
        "Altitude(m)": 705692.051157196,
        "Argument of Periapsis(deg)": 0.005814956605804345,
        "Eccentricity": 0.0,
        "Inclination(deg)": 45.0,
        "Latitude(deg)": 37.69838514347293,
        "Longitude(deg)": 144.3838089741476,
        "Mean Anomaly(deg)": 120.43351060424027,
        "RAAN(deg)": 114.99451085093976,
        "Satellite Name": "Constellation 1 513",
        "Satellite Number": 513,
        "Semi-Major Axis(m)": 7083131.272910544,
        "Time(s)": 97
    },
    {
        "Altitude(m)": 705686.4119613634,
        "Argument of Periapsis(deg)": 0.00587490461204975,
        "Eccentricity": 0.0,
        "Inclination(deg)": 45.0,
        "Latitude(deg)": 37.670816879808406,
        "Longitude(deg)": 144.4479740079389,
        "Mean Anomaly(deg)": 120.49421174449012,
        "RAAN(deg)": 114.9944542617742,
        "Satellite Name": "Constellation 1 513",
        "Satellite Number": 513,
        "Semi-Major Axis(m)": 7083131.272910544,
        "Time(s)": 98
    },
    {
        "Altitude(m)": 705680.7678840337,
        "Argument of Periapsis(deg)": 0.005934852618295156,
        "Eccentricity": 0.0,
        "Inclination(deg)": 45.0,
        "Latitude(deg)": 37.64320900788476,
        "Longitude(deg)": 144.51208854772142,
        "Mean Anomaly(deg)": 120.55491288473995,
        "RAAN(deg)": 114.99439767260861,
        "Satellite Name": "Constellation 1 513",
        "Satellite Number": 513,
        "Semi-Major Axis(m)": 7083131.272910544,
        "Time(s)": 99
    },
    {
        "Altitude(m)": 705675.1189602006,
        "Argument of Periapsis(deg)": 0.005994800624540561,
        "Eccentricity": 0.0,
        "Inclination(deg)": 45.0,
        "Latitude(deg)": 37.615561595571315,
        "Longitude(deg)": 144.57615260893397,
        "Mean Anomaly(deg)": 120.61561402498992,
        "RAAN(deg)": 114.99434108344305,
        "Satellite Name": "Constellation 1 513",
        "Satellite Number": 513,
        "Semi-Major Axis(m)": 7083131.272910544,
        "Time(s)": 100
    },
    {
        "Altitude(m)": 705669.4652249039,
        "Argument of Periapsis(deg)": 0.006054748630785968,
        "Eccentricity": 0.0,
        "Inclination(deg)": 45.0,
        "Latitude(deg)": 37.587874710698614,
        "Longitude(deg)": 144.64016620733875,
        "Mean Anomaly(deg)": 120.67631516523979,
        "RAAN(deg)": 114.99428449427747,
        "Satellite Name": "Constellation 1 513",
        "Satellite Number": 513,
        "Semi-Major Axis(m)": 7083131.272910544,
        "Time(s)": 101
    },
    {
        "Altitude(m)": 705663.8067132237,
        "Argument of Periapsis(deg)": 0.006114696637031373,
        "Eccentricity": 0.0,
        "Inclination(deg)": 45.0,
        "Latitude(deg)": 37.56014842105778,
        "Longitude(deg)": 144.7041293590202,
        "Mean Anomaly(deg)": 120.73701630548969,
        "RAAN(deg)": 114.99422790511191,
        "Satellite Name": "Constellation 1 513",
        "Satellite Number": 513,
        "Semi-Major Axis(m)": 7083131.272910544,
        "Time(s)": 102
    },
    {
        "Altitude(m)": 705658.1434602705,
        "Argument of Periapsis(deg)": 0.006174644643276778,
        "Eccentricity": 0.0,
        "Inclination(deg)": 45.0,
        "Latitude(deg)": 37.532382794400164,
        "Longitude(deg)": 144.7680420803834,
        "Mean Anomaly(deg)": 120.79771744573965,
        "RAAN(deg)": 114.99417131594632,
        "Satellite Name": "Constellation 1 513",
        "Satellite Number": 513,
        "Semi-Major Axis(m)": 7083131.272910544,
        "Time(s)": 103
    },
    {
        "Altitude(m)": 705652.4755012061,
        "Argument of Periapsis(deg)": 0.006234592649522184,
        "Eccentricity": 0.0,
        "Inclination(deg)": 45.0,
        "Latitude(deg)": 37.5045778984374,
        "Longitude(deg)": 144.83190422005504,
        "Mean Anomaly(deg)": 120.85841858598948,
        "RAAN(deg)": 114.99411472678077,
        "Satellite Name": "Constellation 1 513",
        "Satellite Number": 513,
        "Semi-Major Axis(m)": 7083131.272910544,
        "Time(s)": 104
    },
    {
        "Altitude(m)": 705646.802871222,
        "Argument of Periapsis(deg)": 0.00629454065576759,
        "Eccentricity": 0.0,
        "Inclination(deg)": 45.0,
        "Latitude(deg)": 37.47673380083974,
        "Longitude(deg)": 144.89571613127157,
        "Mean Anomaly(deg)": 120.91911972623942,
        "RAAN(deg)": 114.99405813761521,
        "Satellite Name": "Constellation 1 513",
        "Satellite Number": 513,
        "Semi-Major Axis(m)": 7083131.272910544,
        "Time(s)": 105
    },
    {
        "Altitude(m)": 705641.1256055458,
        "Argument of Periapsis(deg)": 0.006354488662012995,
        "Eccentricity": 0.0,
        "Inclination(deg)": 45.0,
        "Latitude(deg)": 37.44885056923749,
        "Longitude(deg)": 144.95947766329374,
        "Mean Anomaly(deg)": 120.97982086648928,
        "RAAN(deg)": 114.99400154844962,
        "Satellite Name": "Constellation 1 513",
        "Satellite Number": 513,
        "Semi-Major Axis(m)": 7083131.272910544,
        "Time(s)": 106
    },
    {
        "Altitude(m)": 705635.4437394557,
        "Argument of Periapsis(deg)": 0.006414436668258401,
        "Eccentricity": 0.0,
        "Inclination(deg)": 45.0,
        "Latitude(deg)": 37.42092827121933,
        "Longitude(deg)": 145.02318883379485,
        "Mean Anomaly(deg)": 121.04052200673922,
        "RAAN(deg)": 114.99394495928406,
        "Satellite Name": "Constellation 1 513",
        "Satellite Number": 513,
        "Semi-Major Axis(m)": 7083131.272910544,
        "Time(s)": 107
    },
    {
        "Altitude(m)": 705629.7573082547,
        "Argument of Periapsis(deg)": 0.0064743846745038075,
        "Eccentricity": 0.0,
        "Inclination(deg)": 45.0,
        "Latitude(deg)": 37.39296697433256,
        "Longitude(deg)": 145.08684966076103,
        "Mean Anomaly(deg)": 121.10122314698914,
        "RAAN(deg)": 114.99388837011847,
        "Satellite Name": "Constellation 1 513",
        "Satellite Number": 513,
        "Semi-Major Axis(m)": 7083131.272910544,
        "Time(s)": 108
    },
    {
        "Altitude(m)": 705624.0663472951,
        "Argument of Periapsis(deg)": 0.0065343326807492125,
        "Eccentricity": 0.0,
        "Inclination(deg)": 45.0,
        "Latitude(deg)": 37.36496674608234,
        "Longitude(deg)": 145.15046016249076,
        "Mean Anomaly(deg)": 121.16192428723897,
        "RAAN(deg)": 114.99383178095292,
        "Satellite Name": "Constellation 1 513",
        "Satellite Number": 513,
        "Semi-Major Axis(m)": 7083131.272910544,
        "Time(s)": 109
    },
    {
        "Altitude(m)": 705618.3708919625,
        "Argument of Periapsis(deg)": 0.0065942806869946176,
        "Eccentricity": 0.0,
        "Inclination(deg)": 45.0,
        "Latitude(deg)": 37.33692765393154,
        "Longitude(deg)": 145.2140203575932,
        "Mean Anomaly(deg)": 121.22262542748896,
        "RAAN(deg)": 114.99377519178736,
        "Satellite Name": "Constellation 1 513",
        "Satellite Number": 513,
        "Semi-Major Axis(m)": 7083131.272910544,
        "Time(s)": 110
    },
    {
        "Altitude(m)": 705612.6709776795,
        "Argument of Periapsis(deg)": 0.006654228693240024,
        "Eccentricity": 0.0,
        "Inclination(deg)": 45.0,
        "Latitude(deg)": 37.30884976530073,
        "Longitude(deg)": 145.27753009688894,
        "Mean Anomaly(deg)": 121.28332656773881,
        "RAAN(deg)": 114.99371860262177,
        "Satellite Name": "Constellation 1 513",
        "Satellite Number": 513,
        "Semi-Major Axis(m)": 7083131.272910544,
        "Time(s)": 111
    },
    {
        "Altitude(m)": 705606.966639905,
        "Argument of Periapsis(deg)": 0.006714176699485429,
        "Eccentricity": 0.0,
        "Inclination(deg)": 45.0,
        "Latitude(deg)": 37.28073314756666,
        "Longitude(deg)": 145.34098973579825,
        "Mean Anomaly(deg)": 121.34402770798872,
        "RAAN(deg)": 114.99366201345622,
        "Satellite Name": "Constellation 1 513",
        "Satellite Number": 513,
        "Semi-Major Axis(m)": 7083131.272910544,
        "Time(s)": 112
    },
    {
        "Altitude(m)": 705601.2579141412,
        "Argument of Periapsis(deg)": 0.006774124705730835,
        "Eccentricity": 0.0,
        "Inclination(deg)": 45.0,
        "Latitude(deg)": 37.25257786806331,
        "Longitude(deg)": 145.404399125756,
        "Mean Anomaly(deg)": 121.40472884823858,
        "RAAN(deg)": 114.99360542429065,
        "Satellite Name": "Constellation 1 513",
        "Satellite Number": 513,
        "Semi-Major Axis(m)": 7083131.272910544,
        "Time(s)": 113
    }
]